SWARM A                 
1 39452U 13067B   26169.83270597  .00008159  00000+0  14000-3 0  9995
2 39452  87.3319  55.6302 0003027  96.0481 264.1125 15.50980089706501
SWARM C                 
1 39453U 13067C   26169.83259434  .00008252  00000+0  14161-3 0  9995
2 39453  87.3318  54.2113 0003027  96.2667 263.8939 15.50978805706461
BRITE-CA1 (TORONTO)     
1 40020U 14033L   26169.60050782  .00000571  00000+0  93677-4 0  9997
2 40020  97.9742 298.5023 0077213 272.4058  86.8311 14.72678402642429
OCO 2                   
1 40059U 14035A   26169.80355090  .00000315  00000+0  80029-4 0  9996
2 40059  98.2017 111.0720 0001504  84.7533 275.3837 14.57112392636284
BRITE-PL2 (HEWELIUSZ)   
1 40119U 14049B   26169.77913406  .00001598  00000+0  15283-3 0  9998
2 40119  97.9100 281.7913 0015333 103.7702 256.5226 14.94598146641683
MMS 1                   
1 40482U 15011A   26169.91668980 -.00000680  00000+0  00000+0 0  9990
2 40482  72.1776 348.7646 8322315 167.4849 114.8730  0.28347433  1381
MMS 2                   
1 40483U 15011B   26169.91668980 -.00000680  00000+0  00000+0 0  9991
2 40483  72.1778 348.7668 8323100 167.4905 114.8618  0.28347450  1388
MMS 3                   
1 40484U 15011C   26169.91668980 -.00000680  00000+0  00000+0 0  9992
2 40484  72.1794 348.7717 8322239 167.4850 114.8571  0.28347300  1385
MMS 4                   
1 40485U 15011D   26169.91668980 -.00000680  00000+0  00000+0 0  9993
2 40485  72.1770 348.7670 8321894 167.4929 114.8457  0.28347410  1386
ASTROSAT                
1 40930U 15052A   26169.16786421  .00001390  00000+0  87537-4 0  9994
2 40930   5.9954 148.2888 0007721  46.0722 314.0042 14.82508881579973
DAMPE                   
1 41173U 15078A   26169.86797523  .00001039  00000+0  37464-4 0  9998
2 41173  97.4553 175.3432 0013794  71.8291 288.4450 15.30788879584800
PISAT                   
1 41784U 16059B   26169.71067149  .00000658  00000+0  11973-3 0  9996
2 41784  97.8178 170.0980 0028518 197.7841 162.2369 14.68985598519964
HXMT (HUIYAN)           
1 42758U 17034A   26169.84458597  .00002117  00000+0  11129-3 0  9992
2 42758  43.0125 173.8119 0030790 157.8655 202.3530 15.18484769497917
FLYING LAPTOP           
1 42831U 17042G   26169.85196198  .00002932  00000+0  23235-3 0  9996
2 42831  97.4694 325.3204 0019612 116.1799 244.1446 15.01155413486707
ZHANGHENG 1-01 (CSES-1) 
1 43194U 18015C   26169.84968194  .00005456  00000+0  24971-3 0  9994
2 43194  97.6875 335.5396 0017085 260.1248  99.8058 15.20828864464897
SALSAT                  
1 46495U 20068K   26169.45370448  .00006100  00000+0  21401-3 0  9990
2 46495  97.8850 172.5954 0007987 302.8690  57.1780 15.29814902315557
IXPE                    
1 49954U 21121A   26169.83335647  .00009702  00000+0  52018-3 0  9997
2 49954   0.2309 305.1380 0007240 106.0013 183.4064 15.10263579  5810
SMILE                   
1 69123U 26109A   26158.38327019 -.00000041  00000+0 -36778-3 0  9994
2 69123  69.9787 209.3069 3310191 288.5544  45.7342  7.54049028  2480
